{
  "norad_id": 28521,
  "name": "COSMOS 2414",
  "history": [
    {
      "epoch": "2026-03-28T19:04:08.208480Z",
      "apogee_km": 964.9479880908648,
      "perigee_km": 906.9261698298797,
      "latitude_deg": 4.140229707429664e-05,
      "longitude_deg": -7.781766605759601,
      "height_km": 966.6612262981922,
      "semi_major_axis_km": 7314.0740789603715,
      "eccentricity": 0.00396645,
      "inclination_deg": 82.9454,
      "raan_deg": 104.4623,
      "arg_perigee_deg": 196.6573,
      "mean_anomaly_deg": 163.3291,
      "mean_motion_rev_day": 13.8791775
    },
    {
      "epoch": "2026-03-29T03:43:11.880768Z",
      "apogee_km": 964.9657488503581,
      "perigee_km": 906.9080928813091,
      "latitude_deg": -1.8844665894623548e-05,
      "longitude_deg": -138.1750599942258,
      "height_km": 966.8245699860322,
      "semi_major_axis_km": 7314.073920865833,
      "eccentricity": 0.0039689,
      "inclination_deg": 82.9453,
      "raan_deg": 104.1896,
      "arg_perigee_deg": 195.619,
      "mean_anomaly_deg": 164.3752,
      "mean_motion_rev_day": 13.87917795
    },
    {
      "epoch": "2026-03-30T02:12:45.432864Z",
      "apogee_km": 965.0107645540238,
      "perigee_km": 906.8624166938462,
      "latitude_deg": 2.536440951480738e-05,
      "longitude_deg": -117.19789486552752,
      "height_km": 967.2052702987711,
      "semi_major_axis_km": 7314.073590623935,
      "eccentricity": 0.0039751,
      "inclination_deg": 82.9453,
      "raan_deg": 103.4803,
      "arg_perigee_deg": 192.9215,
      "mean_anomaly_deg": 167.0934,
      "mean_motion_rev_day": 13.87917889
    },
    {
      "epoch": "2026-03-30T12:35:37.837536Z",
      "apogee_km": 965.0319126146878,
      "perigee_km": 906.8407065193742,
      "latitude_deg": -1.588476159923417e-05,
      "longitude_deg": 86.33010605560132,
      "height_km": 967.3604850811159,
      "semi_major_axis_km": 7314.07330956703,
      "eccentricity": 0.00397803,
      "inclination_deg": 82.9453,
      "raan_deg": 103.153,
      "arg_perigee_deg": 191.6754,
      "mean_anomaly_deg": 168.3491,
      "mean_motion_rev_day": 13.87917969
    },
    {
      "epoch": "2026-03-30T17:47:04.039008Z",
      "apogee_km": 965.0414225766117,
      "perigee_km": 906.830908474144,
      "latitude_deg": 0.00010434197779022236,
      "longitude_deg": 8.094077466289539,
      "height_km": 967.4324286548513,
      "semi_major_axis_km": 7314.073165525378,
      "eccentricity": 0.00397935,
      "inclination_deg": 82.9453,
      "raan_deg": 102.9893,
      "arg_perigee_deg": 191.0482,
      "mean_anomaly_deg": 168.9813,
      "mean_motion_rev_day": 13.8791801
    }
  ]
}